{
"type": "FeatureCollection",
"name": "train_regions",
"crs": { "type": "name", "properties": { "name": "urn:ogc:def:crs:OGC:1.3:CRS84" } },
"features": [
{ "type": "Feature", "properties": { "GID_3": "CHN.30.12.2_1", "GID_0": "CHN", "COUNTRY": "China", "GID_1": "CHN.30_1", "NAME_1": "Yunnan", "NL_NAME_1": "雲南|云南", "GID_2": "CHN.30.12_1", "NAME_2": "Qujing", "NL_NAME_2": "曲靖市", "NAME_3": "Huize", "VARNAME_3": "Huìzé", "NL_NAME_3": "会泽县", "TYPE_3": "Xiàn", "ENGTYPE_3": "County", "CC_3": "NA", "HASC_3": "NA" }, "geometry": { "type": "Polygon", "coordinates": [ [ [ 103.482940674000076, 26.430614471500093 ], [ 103.482940674000076, 26.741514206250073 ], [ 103.69711303750006, 26.741514206250073 ], [ 103.69711303750006, 26.430614471500093 ], [ 103.482940674000076, 26.430614471500093 ] ] ] } },
{ "type": "Feature", "properties": { "GID_3": "CHN.30.12.2_1", "GID_0": "CHN", "COUNTRY": "China", "GID_1": "CHN.30_1", "NAME_1": "Yunnan", "NL_NAME_1": "雲南|云南", "GID_2": "CHN.30.12_1", "NAME_2": "Qujing", "NL_NAME_2": "曲靖市", "NAME_3": "Huize", "VARNAME_3": "Huìzé", "NL_NAME_3": "会泽县", "TYPE_3": "Xiàn", "ENGTYPE_3": "County", "CC_3": "NA", "HASC_3": "NA" }, "geometry": { "type": "MultiPolygon", "coordinates": [ [ [ [ 103.841803270727695, 26.430614471500093 ], [ 103.835182190000182, 26.429502487000093 ], [ 103.832377846687606, 26.430614471500093 ], [ 103.841803270727695, 26.430614471500093 ] ] ], [ [ [ 103.69711303750006, 26.430614471500093 ], [ 103.73935589592385, 26.430614471500093 ], [ 103.740501403000053, 26.425367356000152 ], [ 103.735527038000157, 26.417957306000062 ], [ 103.728492738000057, 26.411895752000135 ], [ 103.71940612700007, 26.40579795900004 ], [ 103.709823608000079, 26.399463655000147 ], [ 103.700744630000145, 26.3931407930001 ], [ 103.69711303750006, 26.390142219266224 ], [ 103.69711303750006, 26.430614471500093 ] ] ] ] } },
{ "type": "Feature", "properties": { "GID_3": "CHN.30.12.2_1", "GID_0": "CHN", "COUNTRY": "China", "GID_1": "CHN.30_1", "NAME_1": "Yunnan", "NL_NAME_1": "雲南|云南", "GID_2": "CHN.30.12_1", "NAME_2": "Qujing", "NL_NAME_2": "曲靖市", "NAME_3": "Huize", "VARNAME_3": "Huìzé", "NL_NAME_3": "会泽县", "TYPE_3": "Xiàn", "ENGTYPE_3": "County", "CC_3": "NA", "HASC_3": "NA" }, "geometry": { "type": "Polygon", "coordinates": [ [ [ 103.268768310500093, 26.119714736750112 ], [ 103.268768310500093, 26.10181621205102 ], [ 103.26127624500009, 26.108655930000111 ], [ 103.257240295000145, 26.118438721000189 ], [ 103.256828676967814, 26.119714736750112 ], [ 103.268768310500093, 26.119714736750112 ] ] ] } },
{ "type": "Feature", "properties": { "GID_3": "CHN.30.12.2_1", "GID_0": "CHN", "COUNTRY": "China", "GID_1": "CHN.30_1", "NAME_1": "Yunnan", "NL_NAME_1": "雲南|云南", "GID_2": "CHN.30.12_1", "NAME_2": "Qujing", "NL_NAME_2": "曲靖市", "NAME_3": "Huize", "VARNAME_3": "Huìzé", "NL_NAME_3": "会泽县", "TYPE_3": "Xiàn", "ENGTYPE_3": "County", "CC_3": "NA", "HASC_3": "NA" }, "geometry": { "type": "Polygon", "coordinates": [ [ [ 103.69711303750006, 26.430614471500093 ], [ 103.69711303750006, 26.741514206250073 ], [ 103.722778530501287, 26.741514206250073 ], [ 103.722839355000133, 26.741239548000181 ], [ 103.730369568000128, 26.730682372999979 ], [ 103.743789672000105, 26.730663300000117 ], [ 103.75973510700004, 26.738925934000065 ], [ 103.763084411000023, 26.738920212000096 ], [ 103.765602112000067, 26.735904693000066 ], [ 103.763038634000054, 26.710294723000118 ], [ 103.755470277000143, 26.692222596000079 ], [ 103.75626373200015, 26.662841797000112 ], [ 103.75289154100011, 26.650791169000115 ], [ 103.743652343000178, 26.635738374000141 ], [ 103.744476319000171, 26.626697540000123 ], [ 103.760368347000053, 26.611604691000025 ], [ 103.763710023000101, 26.601804733999984 ], [ 103.762840270000197, 26.584476472000119 ], [ 103.774551391000102, 26.575416565000069 ], [ 103.803840636000075, 26.563310623000064 ], [ 103.809684753, 26.555767059000118 ], [ 103.811325074000138, 26.539188385000102 ], [ 103.823036193000178, 26.535396577000085 ], [ 103.828834535000169, 26.532152175000022 ], [ 103.835998535000101, 26.529439926000066 ], [ 103.843429566000111, 26.528169633000061 ], [ 103.850112915000182, 26.526199341000108 ], [ 103.857292176000101, 26.524698258000171 ], [ 103.860870361000138, 26.524751663000018 ], [ 103.869323730000133, 26.523723603000064 ], [ 103.878837585000099, 26.520418168000049 ], [ 103.888824463000049, 26.519411088000027 ], [ 103.894973754000034, 26.518581391000055 ], [ 103.898551942000154, 26.518171310000128 ], [ 103.903915405000077, 26.518474579000099 ], [ 103.911285401000043, 26.521324158000027 ], [ 103.906066894000048, 26.512088775000166 ], [ 103.902702331000057, 26.499666215000104 ], [ 103.894134522000058, 26.492443084000115 ], [ 103.887359620000097, 26.485242844000027 ], [ 103.886497497000107, 26.475376129000153 ], [ 103.88336181700015, 26.464561463000052 ], [ 103.875892640000075, 26.453226089000111 ], [ 103.869148254000152, 26.444194793000179 ], [ 103.863372803000061, 26.438613892000149 ], [ 103.853996276000032, 26.434356690000186 ], [ 103.845619201000147, 26.431255342000043 ], [ 103.841803270727695, 26.430614471500093 ], [ 103.832377846687606, 26.430614471500093 ], [ 103.828491211000141, 26.432155609 ], [ 103.821540833000086, 26.435266495 ], [ 103.811843871000121, 26.434667587000035 ], [ 103.803443908000133, 26.433170319000169 ], [ 103.792625428000122, 26.438285829000108 ], [ 103.785881042000199, 26.444145203000119 ], [ 103.779327392000084, 26.453674317000036 ], [ 103.77616119400011, 26.459358216000055 ], [ 103.769927979000158, 26.464765550000152 ], [ 103.762748718000068, 26.466493606000142 ], [ 103.750816346000079, 26.462419510000018 ], [ 103.742683410000041, 26.459777831000054 ], [ 103.734626770000091, 26.453695298000127 ], [ 103.733703614000092, 26.447954177000156 ], [ 103.73667907700019, 26.439062118000095 ], [ 103.739105225, 26.431762696000135 ], [ 103.73935589592385, 26.430614471500093 ], [ 103.69711303750006, 26.430614471500093 ] ] ] } },
{ "type": "Feature", "properties": { "GID_3": "CHN.30.12.2_1", "GID_0": "CHN", "COUNTRY": "China", "GID_1": "CHN.30_1", "NAME_1": "Yunnan", "NL_NAME_1": "雲南|云南", "GID_2": "CHN.30.12_1", "NAME_2": "Qujing", "NL_NAME_2": "曲靖市", "NAME_3": "Huize", "VARNAME_3": "Huìzé", "NL_NAME_3": "会泽县", "TYPE_3": "Xiàn", "ENGTYPE_3": "County", "CC_3": "NA", "HASC_3": "NA" }, "geometry": { "type": "Polygon", "coordinates": [ [ [ 103.482940674000076, 26.741514206250073 ], [ 103.482940674000076, 26.430614471500093 ], [ 103.268768310500093, 26.430614471500093 ], [ 103.268768310500093, 26.730199147677943 ], [ 103.277839661000087, 26.731931687000156 ], [ 103.288360596000132, 26.731203080000171 ], [ 103.300437927000132, 26.729129792000037 ], [ 103.310012818000189, 26.724489213000084 ], [ 103.320350647000112, 26.720319748000122 ], [ 103.331130981000172, 26.719135284000174 ], [ 103.342887879000045, 26.71980476300007 ], [ 103.354141236000089, 26.720687867000152 ], [ 103.36460113600009, 26.722246170000176 ], [ 103.371261596000124, 26.722133637000184 ], [ 103.380241394000109, 26.72137260400001 ], [ 103.387603759000058, 26.724250794000113 ], [ 103.391059876000099, 26.730499267000141 ], [ 103.393211364000138, 26.737411498000142 ], [ 103.394153303367617, 26.741514206250073 ], [ 103.482940674000076, 26.741514206250073 ] ] ] } },
{ "type": "Feature", "properties": { "GID_3": "CHN.30.12.2_1", "GID_0": "CHN", "COUNTRY": "China", "GID_1": "CHN.30_1", "NAME_1": "Yunnan", "NL_NAME_1": "雲南|云南", "GID_2": "CHN.30.12_1", "NAME_2": "Qujing", "NL_NAME_2": "曲靖市", "NAME_3": "Huize", "VARNAME_3": "Huìzé", "NL_NAME_3": "会泽县", "TYPE_3": "Xiàn", "ENGTYPE_3": "County", "CC_3": "NA", "HASC_3": "NA" }, "geometry": { "type": "Polygon", "coordinates": [ [ [ 103.482940674000076, 26.119714736750112 ], [ 103.482940674000076, 26.430614471500093 ], [ 103.69711303750006, 26.430614471500093 ], [ 103.69711303750006, 26.390142219266224 ], [ 103.68943023700001, 26.383798599000045 ], [ 103.681648255000084, 26.376802445000067 ], [ 103.675872802000129, 26.371673585000053 ], [ 103.671394347000046, 26.365413667000098 ], [ 103.66791534400005, 26.360548019000078 ], [ 103.665718079000044, 26.355241775000138 ], [ 103.666336060000106, 26.349294664000183 ], [ 103.670295716000169, 26.342247009000175 ], [ 103.677589417000149, 26.334568024000134 ], [ 103.682838441000115, 26.326856613000075 ], [ 103.684982299000069, 26.321159363000106 ], [ 103.68334961000005, 26.313112259000036 ], [ 103.678916932000106, 26.304336547000105 ], [ 103.675987243000122, 26.297414780000054 ], [ 103.672790528000178, 26.2909488680001 ], [ 103.669799805000082, 26.287233353000033 ], [ 103.665298462000067, 26.282350540000095 ], [ 103.660316468000133, 26.276082993000102 ], [ 103.654556273000026, 26.270265580000057 ], [ 103.650817871000186, 26.2658519740001 ], [ 103.649650573000031, 26.260101319000114 ], [ 103.647750854000151, 26.252510071000131 ], [ 103.643882751000149, 26.241678238000134 ], [ 103.644058227000073, 26.232282638000072 ], [ 103.650825501000099, 26.224826814000096 ], [ 103.659088135000047, 26.219453812000154 ], [ 103.665306092000151, 26.214277267000057 ], [ 103.667968749000124, 26.207901001000039 ], [ 103.666648865000127, 26.1968803420001 ], [ 103.661468505000187, 26.187860489000116 ], [ 103.655738831, 26.180894853000041 ], [ 103.647697449000077, 26.174810410000134 ], [ 103.634567261000143, 26.168415070000151 ], [ 103.628005982, 26.164873124000167 ], [ 103.622741700000176, 26.160207748000175 ], [ 103.619224548000147, 26.157630920000145 ], [ 103.613677978000055, 26.154561996000041 ], [ 103.60786438000008, 26.152177810000126 ], [ 103.60230255200014, 26.149795533000088 ], [ 103.596305846000064, 26.143741607000152 ], [ 103.59493255700005, 26.135927201000129 ], [ 103.594078064000144, 26.127202987000032 ], [ 103.593963624000082, 26.120096206000085 ], [ 103.594062868024878, 26.119714736750112 ], [ 103.482940674000076, 26.119714736750112 ] ] ] } },
{ "type": "Feature", "properties": { "GID_3": "CHN.30.12.2_1", "GID_0": "CHN", "COUNTRY": "China", "GID_1": "CHN.30_1", "NAME_1": "Yunnan", "NL_NAME_1": "雲南|云南", "GID_2": "CHN.30.12_1", "NAME_2": "Qujing", "NL_NAME_2": "曲靖市", "NAME_3": "Huize", "VARNAME_3": "Huìzé", "NL_NAME_3": "会泽县", "TYPE_3": "Xiàn", "ENGTYPE_3": "County", "CC_3": "NA", "HASC_3": "NA" }, "geometry": { "type": "Polygon", "coordinates": [ [ [ 103.268768310500093, 26.430614471500093 ], [ 103.079835217235413, 26.430614471500093 ], [ 103.07839965800008, 26.440803527000071 ], [ 103.071601869000119, 26.465646744000082 ], [ 103.056350709000185, 26.507789611000078 ], [ 103.054595947000109, 26.527372361000175 ], [ 103.056442261000086, 26.538209916000085 ], [ 103.06059265100015, 26.542646409000042 ], [ 103.063552857000104, 26.548660279000103 ], [ 103.063423156000113, 26.554161071000124 ], [ 103.059646606000115, 26.562341690000096 ], [ 103.056411742000137, 26.569150924000041 ], [ 103.055732728000123, 26.576242446000094 ], [ 103.057357789000037, 26.583150865000164 ], [ 103.061454773000094, 26.593545914 ], [ 103.061904906999985, 26.606620789000146 ], [ 103.065521241000113, 26.615858078000144 ], [ 103.072586060000106, 26.619890214000179 ], [ 103.083847045000084, 26.619882584000095 ], [ 103.095123291000107, 26.618957520000095 ], [ 103.103721619000112, 26.623247146000097 ], [ 103.106605528999978, 26.631095886000082 ], [ 103.110588073000201, 26.635986328000058 ], [ 103.116424562000191, 26.637933732000079 ], [ 103.122833252000021, 26.637367248000089 ], [ 103.131065368000122, 26.635690689 ], [ 103.145156861000146, 26.634584427000163 ], [ 103.153823852000016, 26.636123657000155 ], [ 103.159538269000052, 26.632337570000118 ], [ 103.164772035000055, 26.627393723000068 ], [ 103.167694092000147, 26.622865678000153 ], [ 103.176528931000064, 26.616842271000166 ], [ 103.188072204000093, 26.615455628000063 ], [ 103.195426941000164, 26.618116378000138 ], [ 103.202751160000162, 26.622375488000102 ], [ 103.207962036000197, 26.629577638000058 ], [ 103.21260833700012, 26.639060975000177 ], [ 103.217247009000062, 26.648771287000159 ], [ 103.219596864000096, 26.657983781000155 ], [ 103.216621399000189, 26.665262222000138 ], [ 103.215385437000066, 26.674409866000076 ], [ 103.217819213000155, 26.679954529000099 ], [ 103.223304748000089, 26.686471939000057 ], [ 103.232818603000055, 26.695816039000135 ], [ 103.234481811000194, 26.70157432600007 ], [ 103.232482910000101, 26.710708619000116 ], [ 103.234359741000048, 26.718303680000133 ], [ 103.242172242000152, 26.723947525000028 ], [ 103.25233459500015, 26.72734260600015 ], [ 103.264587402000075, 26.729400635000161 ], [ 103.268768310500093, 26.730199147677943 ], [ 103.268768310500093, 26.430614471500093 ] ] ] } },
{ "type": "Feature", "properties": { "GID_3": "CHN.30.12.2_1", "GID_0": "CHN", "COUNTRY": "China", "GID_1": "CHN.30_1", "NAME_1": "Yunnan", "NL_NAME_1": "雲南|云南", "GID_2": "CHN.30.12_1", "NAME_2": "Qujing", "NL_NAME_2": "曲靖市", "NAME_3": "Huize", "VARNAME_3": "Huìzé", "NL_NAME_3": "会泽县", "TYPE_3": "Xiàn", "ENGTYPE_3": "County", "CC_3": "NA", "HASC_3": "NA" }, "geometry": { "type": "Polygon", "coordinates": [ [ [ 103.268768310500093, 26.430614471500093 ], [ 103.268768310500093, 26.119714736750112 ], [ 103.256828676967814, 26.119714736750112 ], [ 103.254226684000116, 26.12778091399997 ], [ 103.253341675000115, 26.133037568000077 ], [ 103.252685547000056, 26.139669418999972 ], [ 103.2509613040001, 26.148578644000054 ], [ 103.248161315000175, 26.159990311 ], [ 103.247924804000036, 26.17052841200001 ], [ 103.247711181000057, 26.179924012000072 ], [ 103.246009827000137, 26.187685013000191 ], [ 103.240768433000085, 26.194236756 ], [ 103.236183165999989, 26.205381393000152 ], [ 103.23549652100013, 26.213163375000079 ], [ 103.233558655000195, 26.220233916000041 ], [ 103.229393005000134, 26.223823547000165 ], [ 103.223442077000186, 26.227611542000147 ], [ 103.217071533000137, 26.227722167000138 ], [ 103.20821380600006, 26.224576950000028 ], [ 103.19838714500014, 26.219348907000096 ], [ 103.189399719000107, 26.21115875300012 ], [ 103.183410645000151, 26.205543518000127 ], [ 103.178085326000144, 26.204069139000069 ], [ 103.17294311500001, 26.206035613999973 ], [ 103.165115356000115, 26.213909150000063 ], [ 103.159080506000123, 26.221359254000106 ], [ 103.154800415000125, 26.229988098000149 ], [ 103.151977540000019, 26.241853714000115 ], [ 103.149017334000064, 26.248674394000091 ], [ 103.143554688000165, 26.253152847000024 ], [ 103.134849548000034, 26.254590989000178 ], [ 103.127716064000083, 26.254224777000047 ], [ 103.119834899000182, 26.253158569000107 ], [ 103.109863282000163, 26.254337312000018 ], [ 103.102302550000047, 26.26129913300008 ], [ 103.101684571000135, 26.266826630000082 ], [ 103.104919433000134, 26.293207168000038 ], [ 103.101486207000107, 26.316553117000183 ], [ 103.096450806000121, 26.321813584000154 ], [ 103.093048096000132, 26.336120606000122 ], [ 103.093749999000181, 26.369274140000073 ], [ 103.085296631000119, 26.391851426000073 ], [ 103.079835217235413, 26.430614471500093 ], [ 103.268768310500093, 26.430614471500093 ] ] ] } },
{ "type": "Feature", "properties": { "GID_3": "CHN.30.12.2_1", "GID_0": "CHN", "COUNTRY": "China", "GID_1": "CHN.30_1", "NAME_1": "Yunnan", "NL_NAME_1": "雲南|云南", "GID_2": "CHN.30.12_1", "NAME_2": "Qujing", "NL_NAME_2": "曲靖市", "NAME_3": "Huize", "VARNAME_3": "Huìzé", "NL_NAME_3": "会泽县", "TYPE_3": "Xiàn", "ENGTYPE_3": "County", "CC_3": "NA", "HASC_3": "NA" }, "geometry": { "type": "Polygon", "coordinates": [ [ [ 103.69711303750006, 26.741514206250073 ], [ 103.69711303750006, 27.051669351945808 ], [ 103.698005677000083, 27.051637650000032 ], [ 103.724037171000077, 27.028253555000163 ], [ 103.72906494199998, 27.011674880000044 ], [ 103.741638184000067, 26.986799240000096 ], [ 103.745811462000063, 26.970222473000092 ], [ 103.753364563000162, 26.962678908999976 ], [ 103.765960694000114, 26.960395812000172 ], [ 103.774353027000188, 26.954355239000165 ], [ 103.773490906000177, 26.941551209000181 ], [ 103.759178161000136, 26.918975831000125 ], [ 103.759162903000117, 26.909936905000052 ], [ 103.762512207000157, 26.904657365000048 ], [ 103.773391724000135, 26.882793426000148 ], [ 103.772537232000161, 26.875261308000063 ], [ 103.762458802000083, 26.868497848 ], [ 103.718788148000044, 26.854999543000076 ], [ 103.717933655000138, 26.842948914000146 ], [ 103.707008361000135, 26.832416535000107 ], [ 103.700279236000142, 26.821123123 ], [ 103.699432372999979, 26.809070586000132 ], [ 103.713661193000121, 26.78268432700014 ], [ 103.722778530501287, 26.741514206250073 ], [ 103.69711303750006, 26.741514206250073 ] ] ] } }
]
}
